     2.100          NAVIGATION                              RINEX VERSION / TYPE
fic2rin                                 06/21/2011 00:05:39 PGM / RUN BY / DATE
                                                            END OF HEADER
12 11  6 20 13 59 44.0  .375974923372D-05  .261479726760D-11  .000000000000D+00
     .700000000000D+01 -.658437500000D+02  .430446501253D-08  .937395130933D+00
    -.344589352608D-05  .370026496239D-02  .438652932644D-05  .515372796249D+04
     .136784000000D+06  .670552253723D-07  .283758452529D+01  .447034835815D-07
     .975801587401D+00  .299781250000D+03 -.142436549191D+00 -.810569477758D-08
    -.252153360342D-09  .100000000000D+01  .164100000000D+04  .000000000000D+00
     .240000000000D+01  .000000000000D+00 -.121071934700D-07  .700000000000D+01
     .129606000000D+06  .400000000000D+01
18 11  6 20 13 59 44.0  .143171288073D-03  .193267624127D-11  .000000000000D+00
     .240000000000D+02 -.887500000000D+01  .552058709747D-08 -.975615161899D+00
    -.201165676117D-06  .125188268721D-01  .591762363911D-05  .515360082245D+04
     .136784000000D+06  .126659870148D-06 -.305650457191D+00  .251457095146D-06
     .932998299924D+00  .249062500000D+03 -.224498558196D+01 -.857392856711D-08
    -.234295473633D-09  .100000000000D+01  .164100000000D+04  .000000000000D+00
     .240000000000D+01  .000000000000D+00 -.107102096081D-07  .240000000000D+02
     .129606000000D+06  .400000000000D+01
 1 11  6 20 14  0  0.0  .925194472075D-04  .250111042988D-11  .000000000000D+00
     .670000000000D+02 -.539687500000D+02  .486663128616D-08 -.665248119306D+00
    -.274367630482D-05  .111696780659D-01  .394880771637D-05  .515377208328D+04
     .136800000000D+06 -.132247805595D-06  .271955621127D+01  .800937414169D-07
     .955776765356D+00  .300531250000D+03  .149720814320D+01 -.857750014445D-08
    -.158578033983D-09  .100000000000D+01  .164100000000D+04  .000000000000D+00
     .685000000000D+01  .630000000000D+02 -.419095158577D-08  .670000000000D+02
     .129606000000D+06  .400000000000D+01
 2 11  6 20 14  0  0.0  .342677813023D-03  .193267624127D-11  .000000000000D+00
     .570000000000D+02  .335312500000D+02  .503163815935D-08  .261208831226D+01
     .189058482647D-05  .103226922220D-01  .746548175812D-05  .515377215385D+04
     .136800000000D+06 -.258907675743D-06 -.138521581893D+01 -.353902578354D-07
     .938555649216D+00  .220218750000D+03 -.297543640186D+01 -.819426989566D-08
     .405731186047D-09  .100000000000D+01  .164100000000D+04  .000000000000D+00
     .240000000000D+01  .000000000000D+00 -.172294676304D-07  .570000000000D+02
     .129606000000D+06  .400000000000D+01
 3 11  6 20 14  0  0.0  .731249339879D-03  .522959453519D-11  .000000000000D+00
     .182000000000D+03 -.821875000000D+02  .484198740250D-08  .274720180368D+01
    -.420771539211D-05  .143395821797D-01  .103488564491D-04  .515366612053D+04
     .136800000000D+06  .145286321640D-06 -.254373033582D+01 -.102445483208D-06
     .929123230352D+00  .160437500000D+03  .109758033623D+01 -.794533095493D-08
     .192865176466D-10  .100000000000D+01  .164100000000D+04  .000000000000D+00
     .340000000000D+01  .000000000000D+00 -.465661287308D-08  .182000000000D+03
     .129606000000D+06  .400000000000D+01
 4 11  6 20 14  0  0.0  .149522908032D-03  .106865627458D-10  .000000000000D+00
     .640000000000D+02  .328125000000D+02  .516950104475D-08 -.478992972140D+00
     .200793147087D-05  .956581730861D-02  .735931098461D-05  .515366025162D+04
     .136800000000D+06  .502914190292D-07 -.136786636391D+01  .108033418655D-06
     .937646763083D+00  .224843750000D+03  .729522595453D+00 -.846570977365D-08
     .395730769489D-09  .100000000000D+01  .164100000000D+04  .000000000000D+00
     .240000000000D+01  .000000000000D+00 -.605359673500D-08  .640000000000D+02
     .129606000000D+06  .400000000000D+01
 5 11  6 20 14  0  0.0 -.177618116140D-03 -.557065504836D-11  .000000000000D+00
     .530000000000D+02 -.393750000000D+01  .499413659726D-08 -.169921389588D+01
    -.458210706711D-06  .223061221186D-02  .607222318649D-05  .515368906593D+04
     .136800000000D+06  .651925802231D-07 -.323273182380D+00 -.372529029846D-07
     .954160646107D+00  .257406250000D+03  .193648075362D+00 -.828713090655D-08
    -.182507602174D-09  .100000000000D+01  .164100000000D+04  .000000000000D+00
     .240000000000D+01  .000000000000D+00 -.102445483208D-07  .530000000000D+02
     .129606000000D+06  .400000000000D+01
 6 11  6 20 14  0  0.0  .164301600307D-03 -.820818968350D-10  .000000000000D+00
     .510000000000D+02 -.590312500000D+02  .474341186786D-08 -.151046296073D+01
    -.303611159325D-05  .677550386172D-02  .109728425741D-04  .515364643097D+04
     .136800000000D+06 -.726431608200D-07 -.246990816433D+01  .447034835815D-07
     .936181372672D+00  .157343750000D+03 -.765354336583D+00 -.817248327387D-08
     .146791828755D-09  .100000000000D+01  .164100000000D+04  .000000000000D+00
     .240000000000D+01  .000000000000D+00 -.512227416039D-08  .510000000000D+02
     .129606000000D+06  .400000000000D+01
 7 11  6 20 14  0  0.0  .149989500642D-04  .125055521494D-11  .000000000000D+00
     .720000000000D+02  .563125000000D+02  .437161066656D-08  .109981569407D+01
     .305287539959D-05  .456578820013D-02  .507570803165D-05  .515365586090D+04
     .136800000000D+06  .540167093277D-07  .178241539548D+01 -.428408384323D-07
     .974446501014D+00  .284156250000D+03 -.313557724417D+01 -.819176979152D-08
     .735744932444D-10  .100000000000D+01  .164100000000D+04  .000000000000D+00
     .240000000000D+01  .000000000000D+00 -.107102096081D-07  .720000000000D+02
     .129606000000D+06  .400000000000D+01
 8 11  6 20 14  0  0.0  .825151801109D-05  .113686837722D-12  .000000000000D+00
     .780000000000D+02  .419062500000D+02  .391587739773D-08  .577696983901D+00
     .214949250221D-05  .116673128214D-01  .484101474285D-05  .515358485222D+04
     .136800000000D+06  .113621354103D-06  .185847478711D+01  .614672899246D-07
     .996191647426D+00  .298375000000D+03 -.307427870034D+01 -.800961934708D-08
     .400016662300D-10  .100000000000D+01  .164100000000D+04  .000000000000D+00
     .340000000000D+01  .000000000000D+00 -.419095158577D-08  .780000000000D+02
     .129606000000D+06  .400000000000D+01
 9 11  6 20 14  0  0.0  .876234844327D-04  .250111042988D-11  .000000000000D+00
     .740000000000D+02  .527812500000D+02  .423410493889D-08  .376827750331D+00
     .288896262646D-05  .174370646710D-01  .578165054321D-05  .515366534996D+04
     .136800000000D+06 -.223517417908D-06  .175413268614D+01 -.484287738800D-07
     .983343006172D+00  .283875000000D+03  .157748442545D+01 -.833248993879D-08
     .710743891050D-10  .100000000000D+01  .164100000000D+04  .000000000000D+00
     .340000000000D+01  .000000000000D+00 -.558793544769D-08  .740000000000D+02
     .129606000000D+06  .400000000000D+01
10 11  6 20 14  0  0.0 -.425893813372D-05 -.113686837722D-11  .000000000000D+00
     .890000000000D+02 -.390625000000D+01  .507163982558D-08 -.147674876865D+01
    -.242143869400D-06  .101832337677D-01  .572204589844D-05  .515361117554D+04
     .136800000000D+06  .201165676117D-06 -.299729558128D+00 -.689178705215D-07
     .949115891607D+00  .258093750000D+03  .705042356918D+00 -.825498671047D-08
    -.140362989539D-09  .100000000000D+01  .164100000000D+04  .000000000000D+00
     .340000000000D+01  .000000000000D+00 -.232830643654D-08  .890000000000D+02
     .129606000000D+06  .400000000000D+01
11 11  6 20 14  0  0.0 -.161155592650D-03 -.329691829393D-11  .000000000000D+00
     .480000000000D+02  .253437500000D+02  .626740391967D-08  .124270276936D+01
     .132992863655D-05  .118010859005D-01  .887736678123D-05  .515366940308D+04
     .136800000000D+06 -.156462192535D-06 -.162384551653D+01  .968575477600D-07
     .887551161063D+00  .168937500000D+03  .936231537596D+00 -.903109046688D-08
     .359300680601D-09  .100000000000D+01  .164100000000D+04  .000000000000D+00
     .240000000000D+01  .000000000000D+00 -.116415321827D-07  .480000000000D+02
     .129606000000D+06  .400000000000D+01
13 11  6 20 14  0  0.0  .264704693109D-03 -.170530256582D-11  .000000000000D+00
     .560000000000D+02  .361250000000D+02  .380087260731D-08 -.273312882727D+01
     .197999179363D-05  .476145290304D-02  .103171914816D-04  .515359125137D+04
     .136800000000D+06  .223517417908D-07  .807488166415D+00  .614672899246D-07
     .989598863736D+00  .196937500000D+03  .187297432556D+01 -.757995859284D-08
    -.113933317209D-09  .100000000000D+01  .164100000000D+04  .000000000000D+00
     .240000000000D+01  .000000000000D+00 -.111758708954D-07  .560000000000D+02
     .129606000000D+06  .400000000000D+01
14 11  6 20 14  0  0.0  .157116446644D-03  .216004991671D-11  .000000000000D+00
     .710000000000D+02  .405625000000D+02  .393873549271D-08 -.269236688837D+01
     .216066837311D-05  .584671017714D-02  .101532787085D-04  .515368031311D+04
     .136800000000D+06  .171363353729D-06  .783128399184D+00 -.800937414169D-07
     .982633368018D+00  .193375000000D+03 -.211214696034D+01 -.764103256539D-08
    -.147863301957D-09  .100000000000D+01  .164100000000D+04  .000000000000D+00
     .240000000000D+01  .000000000000D+00 -.884756445885D-08  .710000000000D+02
     .129606000000D+06  .400000000000D+01
15 11  6 20 14  0  0.0 -.120462849736D-03  .227373675443D-11  .000000000000D+00
     .750000000000D+02  .319687500000D+02  .470269588616D-08 -.309041667194D+01
     .167265534401D-05  .342710840050D-02  .937283039093D-05  .515363627815D+04
     .136800000000D+06 -.689178705215D-07  .706542166866D+00  .335276126862D-07
     .949818656971D+00  .194312500000D+03 -.518637272353D-01 -.799354724904D-08
    -.174292974288D-09  .100000000000D+01  .164100000000D+04  .000000000000D+00
     .240000000000D+01  .000000000000D+00 -.102445483208D-07  .750000000000D+02
     .129606000000D+06  .400000000000D+01
